ONEWEB-0427             
1 50499U 21132AG  26144.90687791 -.00000018  00000+0 -78441-4 0  9998
2 50499  87.9171 340.0670 0002016  93.0231 267.1132 13.18686653218548
ONEWEB-0429             
1 50500U 21132AH  26144.51399842  .00000033  00000+0  50210-4 0  9994
2 50500  87.9162 340.1715 0001730  85.4180 274.7149 13.18688742218466
ONEWEB-0430             
1 50501U 21132AJ  26144.95744968 -.00000050  00000+0 -16009-3 0  9994
2 50501  87.9163 340.0811 0001597  91.7060 268.4255 13.18692356218567
ONEWEB-0432             
1 50502U 21132AK  26144.91452997 -.00000042  00000+0 -13858-3 0  9999
2 50502  87.9169 340.0619 0001602 107.7718 252.3589 13.18712559218510
ONEWEB-0440             
1 50503U 21132AL  26144.90182361  .00000046  00000+0  83041-4 0  9998
2 50503  87.9170 340.0868 0001912  78.2317 281.9030 13.18687185218504
ONEWEB-0450             
1 50504U 21132AM  26144.81934607  .00000046  00000+0  83047-4 0  9993
2 50504  87.9160 340.1109 0001647  85.1884 274.9437 13.18686917218521
ONEWEB-0410             
1 51622U 22012A   26144.90487319  .00000030  00000+0  44350-4 0  9993
2 51622  87.9164  10.4850 0003054  97.8305 262.3174 13.17650636210630
ONEWEB-0411             
1 51623U 22012B   26144.95303023 -.00000203  00000+0 -61847-3 0  9991
2 51623  87.8856  40.8904 0001251  82.4562 277.6707 13.10370480206249
ONEWEB-0415             
1 51624U 22012C   26144.94971786 -.00000019  00000+0 -89970-4 0  9991
2 51624  87.8849  40.8912 0001585  84.0894 276.0414 13.10370328206246
ONEWEB-0416             
1 51625U 22012D   26144.96131973 -.00000649  00000+0 -18964-2 0  9992
2 51625  87.8847  40.9078 0001654  92.9580 267.1737 13.10371636206282
ONEWEB-0422             
1 51626U 22012E   26144.91500413  .00000060  00000+0  12099-3 0  9996
2 51626  87.9160  10.4847 0001680  63.0911 297.0393 13.17649228210742
ONEWEB-0423             
1 51627U 22012F   26144.90825817  .00000060  00000+0  12117-3 0  9995
2 51627  87.9155  10.4928 0001949  84.2978 275.8376 13.17647885210633
ONEWEB-0425             
1 51628U 22012G   26144.66586895 -.00000601  00000+0 -17579-2 0  9998
2 51628  87.8856  40.9493 0002145  83.6832 276.4540 13.10374419206242
ONEWEB-0428             
1 51629U 22012H   26144.95137407 -.00000112  00000+0 -35756-3 0  9997
2 51629  87.8849  40.9001 0001808  77.8729 282.2601 13.10370241206247
ONEWEB-0431             
1 51630U 22012J   26144.76864874  .00000602  00000+0  16891-2 0  9993
2 51630  87.8857  40.9283 0001216  75.4820 284.6442 13.10375823206272
ONEWEB-0434             
1 51631U 22012K   26144.66931810 -.00000527  00000+0 -15447-2 0  9992
2 51631  87.8859  40.9724 0002455  84.7705 275.3703 13.10375086206241
