[{"OBJECT_NAME":"ONEWEB-0427","OBJECT_ID":"2021-132AG","EPOCH":"2026-05-24T21:45:54.251424","MEAN_MOTION":13.18686653,"ECCENTRICITY":0.0002016,"INCLINATION":87.9171,"RA_OF_ASC_NODE":340.067,"ARG_OF_PERICENTER":93.0231,"MEAN_ANOMALY":267.1132,"EPHEMERIS_TYPE":0,"CLASSIFICATION_TYPE":"U","NORAD_CAT_ID":50499,"ELEMENT_SET_NO":999,"REV_AT_EPOCH":21854,"BSTAR":-7.8441e-05,"MEAN_MOTION_DOT":-1.8e-07,"MEAN_MOTION_DDOT":0.0},{"OBJECT_NAME":"ONEWEB-0429","OBJECT_ID":"2021-132AH","EPOCH":"2026-05-24T12:20:09.463488","MEAN_MOTION":13.18688742,"ECCENTRICITY":0.000173,"INCLINATION":87.9162,"RA_OF_ASC_NODE":340.1715,"ARG_OF_PERICENTER":85.418,"MEAN_ANOMALY":274.7149,"EPHEMERIS_TYPE":0,"CLASSIFICATION_TYPE":"U","NORAD_CAT_ID":50500,"ELEMENT_SET_NO":999,"REV_AT_EPOCH":21846,"BSTAR":5.021e-05,"MEAN_MOTION_DOT":3.3e-07,"MEAN_MOTION_DDOT":0.0},{"OBJECT_NAME":"ONEWEB-0430","OBJECT_ID":"2021-132AJ","EPOCH":"2026-05-24T22:58:43.652352","MEAN_MOTION":13.18692356,"ECCENTRICITY":0.0001597,"INCLINATION":87.9163,"RA_OF_ASC_NODE":340.0811,"ARG_OF_PERICENTER":91.706,"MEAN_ANOMALY":268.4255,"EPHEMERIS_TYPE":0,"CLASSIFICATION_TYPE":"U","NORAD_CAT_ID":50501,"ELEMENT_SET_NO":999,"REV_AT_EPOCH":21856,"BSTAR":-0.00016009000000000002,"MEAN_MOTION_DOT":-5e-07,"MEAN_MOTION_DDOT":0.0},{"OBJECT_NAME":"ONEWEB-0432","OBJECT_ID":"2021-132AK","EPOCH":"2026-05-24T21:56:55.389408","MEAN_MOTION":13.18712559,"ECCENTRICITY":0.0001602,"INCLINATION":87.9169,"RA_OF_ASC_NODE":340.0619,"ARG_OF_PERICENTER":107.7718,"MEAN_ANOMALY":252.3589,"EPHEMERIS_TYPE":0,"CLASSIFICATION_TYPE":"U","NORAD_CAT_ID":50502,"ELEMENT_SET_NO":999,"REV_AT_EPOCH":21851,"BSTAR":-0.00013858000000000002,"MEAN_MOTION_DOT":-4.2e-07,"MEAN_MOTION_DDOT":0.0},{"OBJECT_NAME":"ONEWEB-0440","OBJECT_ID":"2021-132AL","EPOCH":"2026-05-24T21:38:37.559904","MEAN_MOTION":13.18687185,"ECCENTRICITY":0.0001912,"INCLINATION":87.917,"RA_OF_ASC_NODE":340.0868,"ARG_OF_PERICENTER":78.2317,"MEAN_ANOMALY":281.903,"EPHEMERIS_TYPE":0,"CLASSIFICATION_TYPE":"U","NORAD_CAT_ID":50503,"ELEMENT_SET_NO":999,"REV_AT_EPOCH":21850,"BSTAR":8.3041e-05,"MEAN_MOTION_DOT":4.6e-07,"MEAN_MOTION_DDOT":0.0},{"OBJECT_NAME":"ONEWEB-0450","OBJECT_ID":"2021-132AM","EPOCH":"2026-05-24T19:39:51.500448","MEAN_MOTION":13.18686917,"ECCENTRICITY":0.0001647,"INCLINATION":87.916,"RA_OF_ASC_NODE":340.1109,"ARG_OF_PERICENTER":85.1884,"MEAN_ANOMALY":274.9437,"EPHEMERIS_TYPE":0,"CLASSIFICATION_TYPE":"U","NORAD_CAT_ID":50504,"ELEMENT_SET_NO":999,"REV_AT_EPOCH":21852,"BSTAR":8.3047e-05,"MEAN_MOTION_DOT":4.6e-07,"MEAN_MOTION_DDOT":0.0},{"OBJECT_NAME":"ONEWEB-0410","OBJECT_ID":"2022-012A","EPOCH":"2026-05-24T21:43:01.043616","MEAN_MOTION":13.17650636,"ECCENTRICITY":0.0003054,"INCLINATION":87.9164,"RA_OF_ASC_NODE":10.485,"ARG_OF_PERICENTER":97.8305,"MEAN_ANOMALY":262.3174,"EPHEMERIS_TYPE":0,"CLASSIFICATION_TYPE":"U","NORAD_CAT_ID":51622,"ELEMENT_SET_NO":999,"REV_AT_EPOCH":21063,"BSTAR":4.435e-05,"MEAN_MOTION_DOT":3e-07,"MEAN_MOTION_DDOT":0.0},{"OBJECT_NAME":"ONEWEB-0411","OBJECT_ID":"2022-012B","EPOCH":"2026-05-24T22:52:21.811872","MEAN_MOTION":13.1037048,"ECCENTRICITY":0.0001251,"INCLINATION":87.8856,"RA_OF_ASC_NODE":40.8904,"ARG_OF_PERICENTER":82.4562,"MEAN_ANOMALY":277.6707,"EPHEMERIS_TYPE":0,"CLASSIFICATION_TYPE":"U","NORAD_CAT_ID":51623,"ELEMENT_SET_NO":999,"REV_AT_EPOCH":20624,"BSTAR":-0.00061847,"MEAN_MOTION_DOT":-2.03e-06,"MEAN_MOTION_DDOT":0.0},{"OBJECT_NAME":"ONEWEB-0415","OBJECT_ID":"2022-012C","EPOCH":"2026-05-24T22:47:35.623104","MEAN_MOTION":13.10370328,"ECCENTRICITY":0.0001585,"INCLINATION":87.8849,"RA_OF_ASC_NODE":40.8912,"ARG_OF_PERICENTER":84.0894,"MEAN_ANOMALY":276.0414,"EPHEMERIS_TYPE":0,"CLASSIFICATION_TYPE":"U","NORAD_CAT_ID":51624,"ELEMENT_SET_NO":999,"REV_AT_EPOCH":20624,"BSTAR":-8.997000000000001e-05,"MEAN_MOTION_DOT":-1.9e-07,"MEAN_MOTION_DDOT":0.0},{"OBJECT_NAME":"ONEWEB-0416","OBJECT_ID":"2022-012D","EPOCH":"2026-05-24T23:04:18.024672","MEAN_MOTION":13.10371636,"ECCENTRICITY":0.0001654,"INCLINATION":87.8847,"RA_OF_ASC_NODE":40.9078,"ARG_OF_PERICENTER":92.958,"MEAN_ANOMALY":267.1737,"EPHEMERIS_TYPE":0,"CLASSIFICATION_TYPE":"U","NORAD_CAT_ID":51625,"ELEMENT_SET_NO":999,"REV_AT_EPOCH":20628,"BSTAR":-0.0018964000000000001,"MEAN_MOTION_DOT":-6.49e-06,"MEAN_MOTION_DDOT":0.0},{"OBJECT_NAME":"ONEWEB-0422","OBJECT_ID":"2022-012E","EPOCH":"2026-05-24T21:57:36.356832","MEAN_MOTION":13.17649228,"ECCENTRICITY":0.000168,"INCLINATION":87.916,"RA_OF_ASC_NODE":10.4847,"ARG_OF_PERICENTER":63.0911,"MEAN_ANOMALY":297.0393,"EPHEMERIS_TYPE":0,"CLASSIFICATION_TYPE":"U","NORAD_CAT_ID":51626,"ELEMENT_SET_NO":999,"REV_AT_EPOCH":21074,"BSTAR":0.00012099,"MEAN_MOTION_DOT":6e-07,"MEAN_MOTION_DDOT":0.0},{"OBJECT_NAME":"ONEWEB-0423","OBJECT_ID":"2022-012F","EPOCH":"2026-05-24T21:47:53.505888","MEAN_MOTION":13.17647885,"ECCENTRICITY":0.0001949,"INCLINATION":87.9155,"RA_OF_ASC_NODE":10.4928,"ARG_OF_PERICENTER":84.2978,"MEAN_ANOMALY":275.8376,"EPHEMERIS_TYPE":0,"CLASSIFICATION_TYPE":"U","NORAD_CAT_ID":51627,"ELEMENT_SET_NO":999,"REV_AT_EPOCH":21063,"BSTAR":0.00012117000000000001,"MEAN_MOTION_DOT":6e-07,"MEAN_MOTION_DDOT":0.0},{"OBJECT_NAME":"ONEWEB-0425","OBJECT_ID":"2022-012G","EPOCH":"2026-05-24T15:58:51.077280","MEAN_MOTION":13.10374419,"ECCENTRICITY":0.0002145,"INCLINATION":87.8856,"RA_OF_ASC_NODE":40.9493,"ARG_OF_PERICENTER":83.6832,"MEAN_ANOMALY":276.454,"EPHEMERIS_TYPE":0,"CLASSIFICATION_TYPE":"U","NORAD_CAT_ID":51628,"ELEMENT_SET_NO":999,"REV_AT_EPOCH":20624,"BSTAR":-0.0017579,"MEAN_MOTION_DOT":-6.01e-06,"MEAN_MOTION_DDOT":0.0},{"OBJECT_NAME":"ONEWEB-0428","OBJECT_ID":"2022-012H","EPOCH":"2026-05-24T22:49:58.719648","MEAN_MOTION":13.10370241,"ECCENTRICITY":0.0001808,"INCLINATION":87.8849,"RA_OF_ASC_NODE":40.9001,"ARG_OF_PERICENTER":77.8729,"MEAN_ANOMALY":282.2601,"EPHEMERIS_TYPE":0,"CLASSIFICATION_TYPE":"U","NORAD_CAT_ID":51629,"ELEMENT_SET_NO":999,"REV_AT_EPOCH":20624,"BSTAR":-0.00035756,"MEAN_MOTION_DOT":-1.12e-06,"MEAN_MOTION_DDOT":0.0},{"OBJECT_NAME":"ONEWEB-0431","OBJECT_ID":"2022-012J","EPOCH":"2026-05-24T18:26:51.251136","MEAN_MOTION":13.10375823,"ECCENTRICITY":0.0001216,"INCLINATION":87.8857,"RA_OF_ASC_NODE":40.9283,"ARG_OF_PERICENTER":75.482,"MEAN_ANOMALY":284.6442,"EPHEMERIS_TYPE":0,"CLASSIFICATION_TYPE":"U","NORAD_CAT_ID":51630,"ELEMENT_SET_NO":999,"REV_AT_EPOCH":20627,"BSTAR":0.0016891,"MEAN_MOTION_DOT":6.02e-06,"MEAN_MOTION_DDOT":0.0},{"OBJECT_NAME":"ONEWEB-0434","OBJECT_ID":"2022-012K","EPOCH":"2026-05-24T16:03:49.083840","MEAN_MOTION":13.10375086,"ECCENTRICITY":0.0002455,"INCLINATION":87.8859,"RA_OF_ASC_NODE":40.9724,"ARG_OF_PERICENTER":84.7705,"MEAN_ANOMALY":275.3703,"EPHEMERIS_TYPE":0,"CLASSIFICATION_TYPE":"U","NORAD_CAT_ID":51631,"ELEMENT_SET_NO":999,"REV_AT_EPOCH":20624,"BSTAR":-0.0015447,"MEAN_MOTION_DOT":-5.27e-06,"MEAN_MOTION_DDOT":0.0}]